{"type": "FeatureCollection", "features": [ {"type": "Feature", "properties": {"norad_id": 66557, "name": "STARLINK-35699", "group": "last-30-days", "lat": 36.52947585977789, "lon": -169.53830215436557, "alt_km": 409.799550960086, "timestamp": "2025-12-09T21:34:10.195848+00:00", "meta": {"OBJECT_NAME": "STARLINK-35699", "OBJECT_ID": "2025-268A", "EPOCH": "2025-12-09T14:00:01.999872", "MEAN_MOTION": 15.50534014, "ECCENTRICITY": 9.865e-05, "INCLINATION": 43.0004, "RA_OF_ASC_NODE": 139.6588, "ARG_OF_PERICENTER": 270.8143, "MEAN_ANOMALY": 187.5254, "EPHEMERIS_TYPE": 0, "CLASSIFICATION_TYPE": "U", "NORAD_CAT_ID": 66557, "ELEMENT_SET_NO": 999, "REV_AT_EPOCH": 416, "BSTAR": 0.00096554206, "MEAN_MOTION_DOT": 0.00056621, "MEAN_MOTION_DDOT": 0}, "tle": {"line1": "1 66557U 25268A   25343.58335648  .00056621  00000+0  96554-3 0  9992", "line2": "2 66557  43.0004 139.6588 0000986 270.8143 187.5254 15.50534014  4161"}}, "geometry": {"type": "Point", "coordinates": [-169.53830215436557, 36.52947585977789]}}, {"type": "Feature", "properties": {"norad_id": 66558, "name": "STARLINK-35695", "group": "last-30-days", "lat": 37.29684118011724, "lon": -167.36488674203684, "alt_km": 409.75466258523466, "timestamp": "2025-12-09T21:34:10.195861+00:00", "meta": {"OBJECT_NAME": "STARLINK-35695", "OBJECT_ID": "2025-268B", "EPOCH": "2025-12-09T14:00:01.999872", "MEAN_MOTION": 15.50526273, "ECCENTRICITY": 0.00010938, "INCLINATION": 43.0004, "RA_OF_ASC_NODE": 139.6542, "ARG_OF_PERICENTER": 273.6768, "MEAN_ANOMALY": 186.5713, "EPHEMERIS_TYPE": 0, "CLASSIFICATION_TYPE": "U", "NORAD_CAT_ID": 66558, "ELEMENT_SET_NO": 999, "REV_AT_EPOCH": 416, "BSTAR": 0.00097058694, "MEAN_MOTION_DOT": 0.00056905, "MEAN_MOTION_DDOT": 0}, "tle": {"line1": "1 66558U 25268B   25343.58335648  .00056905  00000+0  97059-3 0  9999", "line2": "2 66558  43.0004 139.6542 0001093 273.6768 186.5713 15.50526273  4163"}}, "geometry": {"type": "Point", "coordinates": [-167.36488674203684, 37.29684118011724]}}, {"type": "Feature", "properties": {"norad_id": 66559, "name": "STARLINK-35419", "group": "last-30-days", "lat": 38.067446924382494, "lon": -165.00730147996944, "alt_km": 410.3575527665653, "timestamp": "2025-12-09T21:34:10.195872+00:00", "meta": {"OBJECT_NAME": "STARLINK-35419", "OBJECT_ID": "2025-268C", "EPOCH": "2025-12-09T14:00:01.999872", "MEAN_MOTION": 15.50599891, "ECCENTRICITY": 0.00020762, "INCLINATION": 43.0005, "RA_OF_ASC_NODE": 139.6504, "ARG_OF_PERICENTER": 268.1884, "MEAN_ANOMALY": 194.0445, "EPHEMERIS_TYPE": 0, "CLASSIFICATION_TYPE": "U", "NORAD_CAT_ID": 66559, "ELEMENT_SET_NO": 999, "REV_AT_EPOCH": 416, "BSTAR": -0.0015615323, "MEAN_MOTION_DOT": -0.00090966, "MEAN_MOTION_DDOT": 0}, "tle": {"line1": "1 66559U 25268C   25343.58335648 -.00090966  00000+0 -15615-2 0  9994", "line2": "2 66559  43.0005 139.6504 0002076 268.1884 194.0445 15.50599891  4165"}}, "geometry": {"type": "Point", "coordinates": [-165.00730147996944, 38.067446924382494]}}, {"type": "Feature", "properties": {"norad_id": 66560, "name": "STARLINK-35411", "group": "last-30-days", "lat": 38.75619073324638, "lon": -162.7187678747344, "alt_km": 410.2660491255092, "timestamp": "2025-12-09T21:34:10.195882+00:00", "meta": {"OBJECT_NAME": "STARLINK-35411", "OBJECT_ID": "2025-268D", "EPOCH": "2025-12-09T14:00:01.999872", "MEAN_MOTION": 15.50602956, "ECCENTRICITY": 0.00020843, "INCLINATION": 43.0005, "RA_OF_ASC_NODE": 139.6456, "ARG_OF_PERICENTER": 269.6093, "MEAN_ANOMALY": 194.545, "EPHEMERIS_TYPE": 0, "CLASSIFICATION_TYPE": "U", "NORAD_CAT_ID": 66560, "ELEMENT_SET_NO": 999, "REV_AT_EPOCH": 416, "BSTAR": -0.0016974083, "MEAN_MOTION_DOT": -0.00098765, "MEAN_MOTION_DDOT": 0}, "tle": {"line1": "1 66560U 25268D   25343.58335648 -.00098765  00000+0 -16974-2 0  9990", "line2": "2 66560  43.0005 139.6456 0002084 269.6093 194.5450 15.50602956  4168"}}, "geometry": {"type": "Point", "coordinates": [-162.7187678747344, 38.75619073324638]}}, {"type": "Feature", "properties": {"norad_id": 66561, "name": "STARLINK-35305", "group": "last-30-days", "lat": 39.990023911850066, "lon": -158.03329700564043, "alt_km": 410.0661805514683, "timestamp": "2025-12-09T21:34:10.195893+00:00", "meta": {"OBJECT_NAME": "STARLINK-35305", "OBJECT_ID": "2025-268E", "EPOCH": "2025-12-09T14:00:01.999872", "MEAN_MOTION": 15.50595609, "ECCENTRICITY": 0.00020194, "INCLINATION": 43.0005, "RA_OF_ASC_NODE": 139.6361, "ARG_OF_PERICENTER": 269.5098, "MEAN_ANOMALY": 198.4777, "EPHEMERIS_TYPE": 0, "CLASSIFICATION_TYPE": "U", "NORAD_CAT_ID": 66561, "ELEMENT_SET_NO": 999, "REV_AT_EPOCH": 411, "BSTAR": -0.0014757233, "MEAN_MOTION_DOT": -0.00086026, "MEAN_MOTION_DDOT": 0}, "tle": {"line1": "1 66561U 25268E   25343.58335648 -.00086026  00000+0 -14757-2 0  9995", "line2": "2 66561  43.0005 139.6361 0002019 269.5098 198.4777 15.50595609  4112"}}, "geometry": {"type": "Point", "coordinates": [-158.03329700564043, 39.990023911850066]}}, {"type": "Feature", "properties": {"norad_id": 66562, "name": "STARLINK-35579", "group": "last-30-days", "lat": 39.39739398734909, "lon": -160.3953595505391, "alt_km": 410.1671455869109, "timestamp": "2025-12-09T21:34:10.195903+00:00", "meta": {"OBJECT_NAME": "STARLINK-35579", "OBJECT_ID": "2025-268F", "EPOCH": "2025-12-09T14:00:01.999872", "MEAN_MOTION": 15.50603659, "ECCENTRICITY": 0.00020349, "INCLINATION": 43.0006, "RA_OF_ASC_NODE": 139.64, "ARG_OF_PERICENTER": 268.3628, "MEAN_ANOMALY": 197.7086, "EPHEMERIS_TYPE": 0, "CLASSIFICATION_TYPE": "U", "NORAD_CAT_ID": 66562, "ELEMENT_SET_NO": 999, "REV_AT_EPOCH": 416, "BSTAR": -0.0017305818, "MEAN_MOTION_DOT": -0.00100666, "MEAN_MOTION_DDOT": 0}, "tle": {"line1": "1 66562U 25268F   25343.58335648 -.00100666  00000+0 -17306-2 0  9996", "line2": "2 66562  43.0006 139.6400 0002034 268.3628 197.7086 15.50603659  4166"}}, "geometry": {"type": "Point", "coordinates": [-160.3953595505391, 39.39739398734909]}}, {"type": "Feature", "properties": {"norad_id": 66563, "name": "STARLINK-35437", "group": "last-30-days", "lat": 40.536877870547926, "lon": -155.618816359481, "alt_km": 410.01814544075114, "timestamp": "2025-12-09T21:34:10.195912+00:00", "meta": {"OBJECT_NAME": "STARLINK-35437", "OBJECT_ID": "2025-268G", "EPOCH": "2025-12-09T14:00:01.999872", "MEAN_MOTION": 15.50607135, "ECCENTRICITY": 0.00020241, "INCLINATION": 43.0005, "RA_OF_ASC_NODE": 139.6307, "ARG_OF_PERICENTER": 268.7358, "MEAN_ANOMALY": 201.1711, "EPHEMERIS_TYPE": 0, "CLASSIFICATION_TYPE": "U", "NORAD_CAT_ID": 66563, "ELEMENT_SET_NO": 999, "REV_AT_EPOCH": 416, "BSTAR": -0.0018706357, "MEAN_MOTION_DOT": -0.00108689, "MEAN_MOTION_DDOT": 0}, "tle": {"line1": "1 66563U 25268G   25343.58335648 -.00108689  00000+0 -18706-2 0  9995", "line2": "2 66563  43.0005 139.6307 0002024 268.7358 201.1711 15.50607135  4163"}}, "geometry": {"type": "Point", "coordinates": [-155.618816359481, 40.536877870547926]}}, {"type": "Feature", "properties": {"norad_id": 66564, "name": "STARLINK-35358", "group": "last-30-days", "lat": 41.028808657591846, "lon": -153.1847492117758, "alt_km": 409.9235112695069, "timestamp": "2025-12-09T21:34:10.195923+00:00", "meta": {"OBJECT_NAME": "STARLINK-35358", "OBJECT_ID": "2025-268H", "EPOCH": "2025-12-09T14:00:01.999872", "MEAN_MOTION": 15.50594889, "ECCENTRICITY": 0.00019887, "INCLINATION": 43.0005, "RA_OF_ASC_NODE": 139.6261, "ARG_OF_PERICENTER": 268.2323, "MEAN_ANOMALY": 203.5891, "EPHEMERIS_TYPE": 0, "CLASSIFICATION_TYPE": "U", "NORAD_CAT_ID": 66564, "ELEMENT_SET_NO": 999, "REV_AT_EPOCH": 411, "BSTAR": -0.00145344, "MEAN_MOTION_DOT": -0.00084744, "MEAN_MOTION_DDOT": 0}, "tle": {"line1": "1 66564U 25268H   25343.58335648 -.00084744  00000+0 -14534-2 0  9996", "line2": "2 66564  43.0005 139.6261 0001988 268.2323 203.5891 15.50594889  4119"}}, "geometry": {"type": "Point", "coordinates": [-153.1847492117758, 41.028808657591846]}}, {"type": "Feature", "properties": {"norad_id": 66565, "name": "STARLINK-35893", "group": "last-30-days", "lat": 41.47063904390403, "lon": -150.70333322996984, "alt_km": 409.9181190479785, "timestamp": "2025-12-09T21:34:10.195934+00:00", "meta": {"OBJECT_NAME": "STARLINK-35893", "OBJECT_ID": "2025-268J", "EPOCH": "2025-12-09T14:00:01.999872", "MEAN_MOTION": 15.50596941, "ECCENTRICITY": 0.00020648, "INCLINATION": 43.0004, "RA_OF_ASC_NODE": 139.6212, "ARG_OF_PERICENTER": 268.4065, "MEAN_ANOMALY": 205.3326, "EPHEMERIS_TYPE": 0, "CLASSIFICATION_TYPE": "U", "NORAD_CAT_ID": 66565, "ELEMENT_SET_NO": 999, "REV_AT_EPOCH": 416, "BSTAR": -0.0015218344, "MEAN_MOTION_DOT": -0.00088678, "MEAN_MOTION_DDOT": 0}, "tle": {"line1": "1 66565U 25268J   25343.58335648 -.00088678  00000+0 -15218-2 0  9997", "line2": "2 66565  43.0004 139.6212 0002064 268.4065 205.3326 15.50596941  4165"}}, "geometry": {"type": "Point", "coordinates": [-150.70333322996984, 41.47063904390403]}}, {"type": "Feature", "properties": {"norad_id": 66566, "name": "STARLINK-35871", "group": "last-30-days", "lat": 41.85696480116687, "lon": -148.19946319968537, "alt_km": 409.7607429677091, "timestamp": "2025-12-09T21:34:10.195945+00:00", "meta": {"OBJECT_NAME": "STARLINK-35871", "OBJECT_ID": "2025-268K", "EPOCH": "2025-12-09T14:00:01.999872", "MEAN_MOTION": 15.50572726, "ECCENTRICITY": 0.00019393, "INCLINATION": 43.0004, "RA_OF_ASC_NODE": 139.6163, "ARG_OF_PERICENTER": 266.6768, "MEAN_ANOMALY": 208.9834, "EPHEMERIS_TYPE": 0, "CLASSIFICATION_TYPE": "U", "NORAD_CAT_ID": 66566, "ELEMENT_SET_NO": 999, "REV_AT_EPOCH": 416, "BSTAR": -0.00061348077, "MEAN_MOTION_DOT": -0.00036159, "MEAN_MOTION_DDOT": 0}, "tle": {"line1": "1 66566U 25268K   25343.58335648 -.00036159  00000+0 -61348-3 0  9991", "line2": "2 66566  43.0004 139.6163 0001939 266.6768 208.9834 15.50572726  4169"}}, "geometry": {"type": "Point", "coordinates": [-148.19946319968537, 41.85696480116687]}}]}